full_name,e,q,i,om,w,ad,tp_cal,per_y,class,data_arc,condition_code,n_obs_used,two_body,A1,A2,A3,DT,M1,K1,M2,K2,PC,diameter,extent,albedo,rot_per,GM
"     C/2003 P3 (SOHO)",1.0,0.0050,144.43,8.87,87.34,,20030806.4100000,,PAR,1,,13,T,,,,,,,,,,,,,,
"     C/2003 Q1 (SOHO)",1.0,0.0320,29.33,43.43,52.38,,20030820.9700000,,PAR,1,,9,T,,,,,,,,,,,,,,
"     C/2003 Q2 (SOHO)",1.0,0.0049,144.57,9.12,87.31,,20030825.0900000,,PAR,2,,57,T,,,,,,,,,,,,,,
"     C/2003 Q3 (SOHO)",1.0,0.0053,144.84,7.95,85.40,,20030824.8000000,,PAR,1,,25,T,,,,,,,,,,,,,,
"     C/2003 Q4 (SOHO)",1.0,0.0051,144.43,9.27,86.73,,20030825.7800000,,PAR,0,,15,T,,,,,,,,,,,,,,
"     C/2003 Q5 (SOHO)",1.0,0.0050,144.70,8.63,86.64,,20030827.7600000,,PAR,1,,53,T,,,,,,,,,,,,,,
"     C/2003 Q6 (SOHO)",1.0,0.0366,25.43,56.30,33.17,,20030826.5100000,,PAR,0,,9,T,,,,,,,,,,,,,,
"     C/2003 Q7 (SOHO)",1.0,0.0060,144.06,11.23,90.40,,20030830.4000000,,PAR,2,,47,T,,,,,,,,,,,,,,
"     C/2003 Q8 (SOHO)",1.0,0.0050,144.94,8.04,86.07,,20030830.0400000,,PAR,0,,11,T,,,,,,,,,,,,,,
"     C/2003 Q9 (SOHO)",1.0,0.0051,144.26,3.13,81.97,,20030831.5700000,,PAR,1,,26,T,,,,,,,,,,,,,,
"     C/2003 Q10 (SOHO)",1.0,0.0054,144.48,11.64,91.77,,20030825.6700000,,PAR,0,,11,T,,,,,,,,,,,,,,
"     P/2003 QX29 (NEAT)",.4717914141139498,4.239134242327399,11.39653447830706,264.5803059820747,37.2241827635543,11.81185150685883,20021026.2010334,22.7360896219056,JFc,496,4,98,,,,,,6.1,16.,13.4,5.,0.03,,,,,
"     C/2003 R1 (LINEAR)",.8933178900261248,2.101885983929925,149.1956252274832,356.6890598578671,302.6902404912989,37.30277116888876,20030629.6173555,87.454978745032,HTC,353,4,170,,,,,,12.7,13.,16.7,5.,0.03,,,,,
"     C/2003 R2 (SOHO)",1.0,0.0050,141.91,18.95,91.87,,20030905.9300000,,PAR,0,,7,T,,,,,,,,,,,,,,
"     C/2003 R3 (SOHO)",1.0,0.0050,144.75,8.79,86.26,,20030909.6200000,,PAR,1,,24,T,,,,,,,,,,,,,,
"     C/2003 R4 (SOHO)",1.0,0.0316,92.36,173.06,105.04,,20030906.9600000,,PAR,0,,11,T,,,,,,,,,,,,,,
"     C/2003 S3 (LINEAR)",1.001807139928184,8.129534685866556,151.4977115681849,226.3888405743762,154.5700280437706,,20030410.5341424,,HYP,1035,,122,,,,,,5.1,11.,10.9,5.,0.03,,,,,
"     C/2003 S4-A (LINEAR)",.8950980247173976,3.873981442845472,40.70817215017712,224.552752977596,155.3162739733166,69.9850938016215,20040530.8387596,224.42384945919,COM,23,6,17,,,,,,12.3,10.,15.6,5.,0.03,,,,,
"     C/2003 S4-B (LINEAR)",.9040799923798569,3.837729215833444,40.39988146146798,224.5380453480329,153.6746171049407,76.18163923608327,20040523.1752505,253.078870714312,COM,23,6,20,,,,,,12.4,10.,15.6,5.,0.03,,,,,
"     C/2003 S5 (SOHO)",1.0,0.0050,144.77,9.13,85.44,,20030919.2000000,,PAR,0,,21,T,,,,,,,,,,,,,,
"     C/2003 S6 (SOHO)",1.0,0.0066,141.01,19.09,87.22,,20030919.1200000,,PAR,0,,5,T,,,,,,,,,,,,,,
"     C/2003 S7 (SOHO)",1.0,0.0049,145.00,2.99,75.98,,20030922.0200000,,PAR,0,,14,T,,,,,,,,,,,,,,
"     C/2003 S8 (SOHO)",1.0,0.0052,144.28,1.90,78.39,,20030926.6300000,,PAR,1,,40,T,,,,,,,,,,,,,,
"     C/2003 S9 (SOHO)",1.0,0.0154,28.79,59.32,180.22,,20030925.3500000,,PAR,0,,8,T,,,,,,,,,,,,,,
"     C/2003 T2 (LINEAR)",.9997229463097832,1.786352380572432,87.53147246673005,238.5326995536752,152.2331617026455,12893.56529714684,20031114.0275828,517741.518580054,COM,128,,447,,,,,,9.8,27.,16.1,5.,0.03,,,,,
"     C/2003 T3 (Tabur)",.999741619586288,1.481075810169518,50.4444275812351,347.0575701081324,43.77380409188755,11462.82296250312,20040429.0018600,433995.025488907,COM,566,,751,,,,,,5.8,15.,11.1,5.,0.03,,,,,
"     C/2003 T4 (LINEAR)",1.000469099104886,.84974097896665,86.76125616308698,93.90295797418401,181.6795033935044,,20050403.6571909,,HYP,871,,997,,1.059211437019851E-7,8.104263483828817E-10,3.207293607651165E-9,,9.1,7.,,,,,,,,
"     C/2003 T5 (SOHO)",1.0,0.0051,144.53,9.05,86.79,,20031009.9400000,,PAR,1,,22,T,,,,,,,,,,,,,,
"     C/2003 T6 (SOHO)",1.0,0.0071,144.66,353.66,77.93,,20031010.2500000,,PAR,0,,14,T,,,,,,,,,,,,,,
"     C/2003 T7 (SOHO)",1.0,0.0050,144.54,9.18,87.43,,20031010.9100000,,PAR,1,,42,T,,,,,,,,,,,,,,
"     C/2003 T8 (SOHO)",1.0,0.0050,143.21,6.09,83.32,,20031009.2600000,,PAR,1,,6,T,,,,,,,,,,,,,,
"     C/2003 T9 (SOHO)",1.0,0.0054,149.12,357.61,76.98,,20031010.0600000,,PAR,0,,4,T,,,,,,,,,,,,,,
"     C/2003 T10 (SOHO)",1.0,0.0049,144.53,9.01,87.17,,20031014.4800000,,PAR,1,,41,T,,,,,,,,,,,,,,
"     C/2003 T11 (SOHO)",1.0,0.0053,146.04,4.99,88.39,,20031015.8500000,,PAR,0,,8,T,,,,,,,,,,,,,,
"     P/2003 T12 (SOHO)",.7761658802046894,.5748063552075969,11.47518895022213,176.4654961278702,217.6688776900589,4.561196643202471,20120126.4465484,4.11529631834572,JFc,4592,1,491,,,,,,19.7,22.,,,,,,,,
"     C/2003 U1 (LINEAR)",.9215647483541063,1.795714710266226,164.4745444686548,322.7631803647729,278.3838331756184,43.99274577362989,20031103.3978199,109.546188475598,HTC,63,5,188,,,,,,15.2,10.,17.2,5.,0.03,,,,,
"     C/2003 U4 (SOHO)",1.0,0.0357,74.94,73.97,58.38,,20031021.2100000,,PAR,0,,10,T,,,,,,,,,,,,,,
"     C/2003 U5 (SOHO)",1.0,0.0052,144.60,8.93,85.74,,20031017.3400000,,PAR,1,,7,T,,,,,,,,,,,,,,
"     C/2003 U6 (SOHO)",1.0,0.0050,144.48,9.07,87.14,,20031021.5700000,,PAR,1,,37,T,,,,,,,,,,,,,,
"     C/2003 U7 (SOHO)",1.0,0.0051,144.44,12.13,88.13,,20031023.4300000,,PAR,0,,6,T,,,,,,,,,,,,,,
"     C/2003 U8 (SOHO)",1.0,0.0050,137.65,294.41,36.51,,20031026.0600000,,PAR,0,,5,T,,,,,,,,,,,,,,
"     C/2003 U9 (SOHO)",1.0,0.0050,144.22,10.76,86.95,,20031028.3000000,,PAR,2,,66,T,,,,,,,,,,,,,,
"     C/2003 V1 (LINEAR)",.9970427994380671,1.783142956338958,28.67513144128866,25.83287775965257,8.63165027576372,1204.183729424768,20030311.1815613,14806.9727036149,COM,441,,535,,,,,,9.9,8.,11.8,5.,0.03,,,,,
"     C/2003 V2 (SOHO)",1.0,0.0050,145.16,9.93,89.43,,20031102.2400000,,PAR,0,,5,T,,,,,,,,,,,,,,
"     C/2003 V3 (SOHO)",1.0,0.0050,144.30,9.67,87.39,,20031104.3600000,,PAR,1,,28,T,,,,,,,,,,,,,,
"     C/2003 V4 (SOHO)",1.0,0.0050,145.14,9.22,88.06,,20031105.3200000,,PAR,1,,6,T,,,,,,,,,,,,,,
"     C/2003 V5 (SOHO)",1.0,0.0082,136.94,332.92,58.04,,20031106.8300000,,PAR,1,,64,T,,,,,,,,,,,,,,
"     C/2003 V6 (SOHO)",1.0,0.0050,145.14,7.73,85.78,,20031109.9300000,,PAR,0,,8,T,,,,,,,,,,,,,,
"     C/2003 V7 (SOHO)",1.0,0.0050,144.42,357.95,76.08,,20031112.2400000,,PAR,0,,4,T,,,,,,,,,,,,,,
"     C/2003 V8 (SOHO)",1.0,0.0049,143.31,11.75,87.59,,20031114.7100000,,PAR,1,,46,T,,,,,,,,,,,,,,
"     C/2003 W1 (LINEAR)",.9343217208389496,1.652414911066125,78.07582624972261,256.742806814577,113.2883069472615,48.66604446921761,20031109.4622285,126.198505633563,HTC,89,5,96,,,,,,13.5,17.,17.4,5.,0.03,,,,,
"     C/2003 W2 (SOHO)",1.0,0.0314,73.26,74.96,56.53,,20031129.9200000,,PAR,1,,26,T,,,,,,,,,,,,,,
"     C/2003 W3 (SOHO)",1.0,0.0052,142.21,11.32,86.83,,20031116.9100000,,PAR,0,,8,T,,,,,,,,,,,,,,
"     C/2003 W4 (SOHO)",1.0,0.0052,140.98,18.15,91.67,,20031122.1300000,,PAR,0,,8,T,,,,,,,,,,,,,,
"     C/2003 W5 (SOHO)",1.0,0.0067,144.58,8.51,87.18,,20031123.2000000,,PAR,0,,7,T,,,,,,,,,,,,,,
"     C/2003 W6 (SOHO)",1.0,0.0048,144.51,9.27,87.55,,20031127.3800000,,PAR,2,,77,T,,,,,,,,,,,,,,
"     C/2003 W7 (SOHO)",1.0,0.0049,144.50,6.62,84.73,,20031127.7100000,,PAR,0,,8,T,,,,,,,,,,,,,,
"     C/2003 W8 (SOHO)",1.0,0.0050,118.30,35.43,82.24,,20031129.6500000,,PAR,0,,6,T,,,,,,,,,,,,,,
"     C/2003 WT42 (LINEAR)",1.002585642607977,5.19092253372875,31.41057839973252,48.45389804771347,92.46688581461758,,20060410.7639900,,HYP,1592,,2472,,,,,,5.0,10.,9.1,5.,0.03,,,,3.31,
"     C/2003 X1 (SOHO)",1.0,0.0048,143.28,17.90,94.22,,20031201.5700000,,PAR,0,,10,T,,,,,,,,,,,,,,
"     C/2003 X2 (SOHO)",1.0,0.0085,134.58,17.48,90.15,,20031201.9900000,,PAR,0,,5,T,,,,,,,,,,,,,,
"     C/2003 X3 (SOHO)",1.0,0.0050,133.82,37.30,112.58,,20031202.7000000,,PAR,0,,4,T,,,,,,,,,,,,,,
"     C/2003 X4 (SOHO)",1.0,0.0053,136.31,29.52,101.56,,20031205.0400000,,PAR,0,,11,T,,,,,,,,,,,,,,
"     C/2003 X5 (SOHO)",1.0,0.0073,139.87,21.99,97.12,,20031205.4100000,,PAR,1,,12,T,,,,,,,,,,,,,,
"     C/2003 X6 (SOHO)",1.0,0.0049,145.82,325.80,49.96,,20031206.7500000,,PAR,0,,10,T,,,,,,,,,,,,,,
"     C/2003 X7 (SOHO)",1.0,0.0050,139.81,26.19,100.04,,20031208.2800000,,PAR,0,,6,T,,,,,,,,,,,,,,
"     C/2003 X8 (SOHO)",1.0,0.0050,141.22,20.45,96.39,,20031208.6800000,,PAR,0,,10,T,,,,,,,,,,,,,,
"     C/2003 X9 (SOHO)",1.0,0.0049,142.28,316.87,41.99,,20031208.9400000,,PAR,0,,9,T,,,,,,,,,,,,,,
"     C/2003 X10 (SOHO)",1.0,0.0053,147.85,328.24,50.70,,20031211.5300000,,PAR,0,,5,T,,,,,,,,,,,,,,
"     C/2003 X11 (SOHO)",1.0,0.0050,143.45,13.35,90.33,,20031214.0000000,,PAR,0,,7,T,,,,,,,,,,,,,,
"     C/2003 Y1 (SOHO)",1.0,0.0354,72.81,74.70,56.72,,20031220.5000000,,PAR,0,,19,T,,,,,,,,,,,,,,
"     C/2003 Y2 (SOHO)",1.0,0.0052,147.13,353.43,71.94,,20031219.9900000,,PAR,0,,9,T,,,,,,,,,,,,,,
"     C/2003 Y3 (SOHO)",1.0,0.0070,145.75,322.68,40.31,,20031220.3000000,,PAR,1,,7,T,,,,,,,,,,,,,,
"     C/2003 Y4 (SOHO)",1.0,0.0049,145.41,352.48,72.44,,20031221.1000000,,PAR,0,,10,T,,,,,,,,,,,,,,
"     C/2003 Y5 (SOHO)",1.0,0.0051,144.52,3.81,82.09,,20031223.1500000,,PAR,0,,10,T,,,,,,,,,,,,,,
"     C/2003 Y6 (SOHO)",1.0,0.0048,144.60,8.49,86.84,,20031224.6600000,,PAR,1,,35,T,,,,,,,,,,,,,,
"     C/2003 Y7 (SOHO)",1.0,0.0047,143.18,15.81,92.93,,20031225.8800000,,PAR,1,,17,T,,,,,,,,,,,,,,
"     C/2003 Y8 (SOHO)",1.0,0.0050,146.52,4.15,79.60,,20031225.6600000,,PAR,0,,6,T,,,,,,,,,,,,,,
"     C/2003 Y9 (SOHO)",1.0,0.0054,146.53,350.70,71.81,,20031225.7800000,,PAR,0,,5,T,,,,,,,,,,,,,,
"     C/2003 Y10 (SOHO)",1.0,0.0051,147.10,355.72,75.83,,20031226.3900000,,PAR,0,,9,T,,,,,,,,,,,,,,
"     C/2003 Y11 (SOHO)",1.0,0.0048,144.96,6.94,83.81,,20031226.6500000,,PAR,0,,7,T,,,,,,,,,,,,,,
"     C/2003 Y12 (SOHO)",1.0,0.0049,145.83,346.72,65.99,,20031227.6200000,,PAR,0,,8,T,,,,,,,,,,,,,,
"     C/2003 Y13 (SOHO)",1.0,0.0056,143.83,356.28,76.78,,20031229.1400000,,PAR,1,,28,T,,,,,,,,,,,,,,
"     C/2003 Y14 (SOHO)",1.0,0.0049,146.14,352.76,72.86,,20031227.6700000,,PAR,0,,6,T,,,,,,,,,,,,,,
"     C/2003 Y15 (SOHO)",1.0,0.0069,142.53,12.00,89.44,,20040101.4600000,,PAR,0,,6,T,,,,,,,,,,,,,,
